[{"OBJECT_NAME":"SHIYAN-1 (SY-1)","OBJECT_ID":"2004-012A","EPOCH":"2026-03-09T17:40:34.066560","MEAN_MOTION":15.31043463,"ECCENTRICITY":0.00058726,"INCLINATION":97.8764,"RA_OF_ASC_NODE":140.5238,"ARG_OF_PERICENTER":23.6952,"MEAN_ANOMALY":336.4557,"EPHEMERIS_TYPE":0,"CLASSIFICATION_TYPE":"U","NORAD_CAT_ID":28220,"ELEMENT_SET_NO":999,"REV_AT_EPOCH":19586,"BSTAR":0.00054854449,"MEAN_MOTION_DOT":0.00016393,"MEAN_MOTION_DDOT":0},{"OBJECT_NAME":"STARLINK-31122","OBJECT_ID":"2024-011K","EPOCH":"2026-03-09T06:24:36.512928","MEAN_MOTION":15.30193529,"ECCENTRICITY":0.00010974,"INCLINATION":53.1617,"RA_OF_ASC_NODE":15.7701,"ARG_OF_PERICENTER":114.9832,"MEAN_ANOMALY":245.1283,"EPHEMERIS_TYPE":0,"CLASSIFICATION_TYPE":"U","NORAD_CAT_ID":58774,"ELEMENT_SET_NO":999,"REV_AT_EPOCH":12020,"BSTAR":2.7376629e-5,"MEAN_MOTION_DOT":4.52e-6,"MEAN_MOTION_DDOT":0}]
