SHIYAN-1 (SY-1)         
1 28220U 04012A   26068.73650539  .00016393  00000+0  54854-3 0  9991
2 28220  97.8764 140.5238 0005873  23.6952 336.4557 15.31043463195862
STARLINK-31122          
1 58774U 24011K   26068.26708927  .00000452  00000+0  27377-4 0  9992
2 58774  53.1617  15.7701 0001097 114.9832 245.1283 15.30193529120200
